COSMOS 2433 (720)       
1 32275U 07052A   26189.97073473 -.00000055  00000+0  00000+0 0  9998
2 32275  65.5635 315.2012 0003283 202.4684 157.5248  2.13104372145529
COSMOS 2432 (719)       
1 32276U 07052B   26191.16860992 -.00000060  00000+0  00000+0 0  9999
2 32276  65.5788 315.2892 0007467 323.9576 178.8039  2.13103214145575
COSMOS 2434 (721)       
1 32393U 07065A   26191.17907138  .00000121  00000+0  00000+0 0  9995
2 32393  64.3199 191.1401 0001266 327.2015 129.5148  2.13101374144265
COSMOS 2436 (723)       
1 32395U 07065C   26191.32538176  .00000120  00000+0  00000+0 0  9995
2 32395  64.3284 191.2075 0017299 353.5883 347.5855  2.13100111144218
COSMOS 2456 (730)       
1 36111U 09070A   26190.63071153 -.00000025  00000+0  00000+0 0  9998
2 36111  65.0240  70.2070 0003790 337.3847 216.9243  2.13103847128907
COSMOS 2457 (733)       
1 36112U 09070B   26190.44876385 -.00000025  00000+0  00000+0 0  9998
2 36112  65.0094  70.0567 0003847 122.9338  58.9933  2.13101278128906
COSMOS 2460 (732)       
1 36402U 10007C   26189.97123418 -.00000055  00000+0  00000+0 0  9993
2 36402  65.4066 313.7300 0001810 135.0435  42.4983  2.13101759127191
COSMOS 2476 (744)       
1 37867U 11064A   26191.04288087 -.00000024  00000+0  00000+0 0  9994
2 37867  65.2823  72.1003 0022271 236.4101 182.4236  2.13103819114250
COSMOS 2477 (745)       
1 37868U 11064B   26191.34812711 -.00000024  00000+0  00000+0 0  9995
2 37868  65.2891  72.1697 0019257 237.2409 236.0411  2.13103071114256
COSMOS 2475 (743)       
1 37869U 11064C   26189.17546069 -.00000023  00000+0  00000+0 0  9993
2 37869  65.2947  72.2646 0025048 251.6541 309.8644  2.13101995114212
COSMOS 2485 (747)       
1 39155U 13019A   26190.90371962 -.00000024  00000+0  00000+0 0  9997
2 39155  65.4318  72.8426 0022783 231.6229 128.2327  2.13103399102760
COSMOS 2492 (754)       
1 39620U 14012A   26190.86257322 -.00000059  00000+0  00000+0 0  9994
2 39620  65.2834 313.1658 0010286 319.9222  40.0089  2.13103446 95720
COSMOS 2500 (755)       
1 40001U 14032A   26188.21653122 -.00000048  00000+0  00000+0 0  9993
2 40001  65.2207 313.0011 0007970 188.6383 171.3606  2.13106140 93888
COSMOS 2501 (702K)      
1 40315U 14075A   26190.82512579  .00000122  00000+0  00000+0 0  9990
2 40315  63.6181 189.5884 0022642 212.5855 147.3037  2.13101357 90330
COSMOS 2514 (751)       
1 41330U 16008A   26191.27891756 -.00000060  00000+0  00000+0 0  9995
2 41330  65.0065 312.2143 0012149 200.5836 159.3748  2.13102592 81115
COSMOS 2522 (752)       
1 42939U 17055A   26191.11660740  .00000122  00000+0  00000+0 0  9992
2 42939  64.0805 191.1038 0010910 240.8947 119.0275  2.13101919 68466
COSMOS 2527 (756)       
1 43508U 18053A   26190.14000907 -.00000024  00000+0  00000+0 0  9991
2 43508  65.5893  73.1758 0006665 231.8684 128.1313  2.13102220 62745
COSMOS 2529 (757)       
1 43687U 18086A   26191.17482311  .00000122  00000+0  00000+0 0  9990
2 43687  64.2967 191.8180 0012112 256.3203 103.5775  2.13102033 59771
COSMOS 2534 (758)       
1 44299U 19030A   26191.12715837  .00000122  00000+0  00000+0 0  9997
2 44299  64.3705 191.8439 0013509 274.9524 182.9689  2.13102136 55418
COSMOS 2544 (759)       
1 44850U 19088A   26191.02313839 -.00000024  00000+0  00000+0 0  9990
2 44850  65.5773  72.9693 0012337 255.3467 104.5773  2.13103012 51208
COSMOS 2545 (760)       
1 45358U 20018A   26188.87178822 -.00000052  00000+0  00000+0 0  9990
2 45358  64.3418 311.6924 0009213 230.0449 129.8870  2.13102711 49103
COSMOS 2547 (705K)      
1 46805U 20075A   26189.53074253  .00000126  00000+0  00000+0 0  9999
2 46805  64.6013 191.7631 0009456 239.7730 120.1659  2.13100166 44369
COSMOS 2557 (706K)      
1 52984U 22075A   26188.28712434 -.00000050  00000+0  00000+0 0  9994
2 52984  64.2857 313.7776 0010595 272.6042  87.2866  2.13102498 31145
COSMOS 2559 (707K)      
1 54031U 22130A   26189.98384888 -.00000057  00000+0  00000+0 0  9994
2 54031  64.2570 313.8003 0012993 180.3657 179.6426  2.13101645 29156
COSMOS 2564 (761)       
1 54377U 22161A   26189.82701961  .00000127  00000+0  00000+0 0  9996
2 54377  64.7436 191.9933 0012253 225.0747 134.8592  2.13101979 28097
COSMOS 2569 (703K)      
1 57517U 23114A   26189.37005777 -.00000024  00000+0  00000+0 0  9993
2 57517  65.3140  71.9064 0009905 296.3420  63.6175  2.13103725 22716
COSMOS 2584 (704K)      
1 63130U 25042A   26185.50280755 -.00000010  00000+0  00000+0 0  9990
2 63130  65.0947  72.2135 0006059 222.1818 137.8396  2.13103855 10411
COSMOS 2596 (708K)      
1 65590U 25206B   26190.50906699 -.00000059  00000+0  00000+0 0  9995
2 65590  64.6203 314.2090 0011163 308.0791  48.6851  2.13100694  6382
